CCSDS_OMM_VERS = 2.0
CREATION_DATE  = 
ORIGINATOR     = 

OBJECT_NAME    = COSMOS 2598 (RODNIK-S 23)
OBJECT_ID      = 2025-273B
CENTER_NAME    = EARTH
REF_FRAME      = TEME
TIME_SYSTEM    = UTC
MEAN_ELEMENT_THEORY = SGP/SGP4

EPOCH          = 2025-12-09T21:22:18.991776
MEAN_MOTION    = 12.42861553
ECCENTRICITY   = .0007265
INCLINATION    = 82.5026
RA_OF_ASC_NODE = 288.2219
ARG_OF_PERICENTER = 258.0832
MEAN_ANOMALY   = 101.9434

EPHEMERIS_TYPE = 0
CLASSIFICATION_TYPE = U
NORAD_CAT_ID   = 66648
ELEMENT_SET_NO = 999
REV_AT_EPOCH   = 178
BSTAR          = -.66757E-4
MEAN_MOTION_DOT = .1E-7
MEAN_MOTION_DDOT = 0

CCSDS_OMM_VERS = 2.0
CREATION_DATE  = 
ORIGINATOR     = 

OBJECT_NAME    = COSMOS 2599 (RODNIK-S 24)
OBJECT_ID      = 2025-273C
CENTER_NAME    = EARTH
REF_FRAME      = TEME
TIME_SYSTEM    = UTC
MEAN_ELEMENT_THEORY = SGP/SGP4

EPOCH          = 2025-12-09T19:38:36.657312
MEAN_MOTION    = 12.41671818
ECCENTRICITY   = .0008162
INCLINATION    = 82.5025
RA_OF_ASC_NODE = 288.2783
ARG_OF_PERICENTER = 306.6878
MEAN_ANOMALY   = 53.3450

EPHEMERIS_TYPE = 0
CLASSIFICATION_TYPE = U
NORAD_CAT_ID   = 66649
ELEMENT_SET_NO = 999
REV_AT_EPOCH   = 177
BSTAR          = .15914E-3
MEAN_MOTION_DOT = .31E-6
MEAN_MOTION_DDOT = 0

CCSDS_OMM_VERS = 2.0
CREATION_DATE  = 
ORIGINATOR     = 

OBJECT_NAME    = BEE-1000
OBJECT_ID      = 2025-274A
CENTER_NAME    = EARTH
REF_FRAME      = TEME
TIME_SYSTEM    = UTC
MEAN_ELEMENT_THEORY = SGP/SGP4

EPOCH          = 2025-12-09T17:36:38.916000
MEAN_MOTION    = 14.91644570
ECCENTRICITY   = .0010439
INCLINATION    = 97.7385
RA_OF_ASC_NODE = 270.9766
ARG_OF_PERICENTER = 263.1107
MEAN_ANOMALY   = 96.8924

EPHEMERIS_TYPE = 0
CLASSIFICATION_TYPE = U
NORAD_CAT_ID   = 66650
ELEMENT_SET_NO = 999
REV_AT_EPOCH   = 195
BSTAR          = .29143E-3
MEAN_MOTION_DOT = .2875E-4
MEAN_MOTION_DDOT = 0

CCSDS_OMM_VERS = 2.0
CREATION_DATE  = 
ORIGINATOR     = 

OBJECT_NAME    = 2025-274B
OBJECT_ID      = 2025-274B
CENTER_NAME    = EARTH
REF_FRAME      = TEME
TIME_SYSTEM    = UTC
MEAN_ELEMENT_THEORY = SGP/SGP4

EPOCH          = 2025-12-09T17:35:40.877664
MEAN_MOTION    = 14.91760107
ECCENTRICITY   = .001074
INCLINATION    = 97.7381
RA_OF_ASC_NODE = 270.9768
ARG_OF_PERICENTER = 262.2658
MEAN_ANOMALY   = 97.7341

EPHEMERIS_TYPE = 0
CLASSIFICATION_TYPE = U
NORAD_CAT_ID   = 66651
ELEMENT_SET_NO = 999
REV_AT_EPOCH   = 195
BSTAR          = .6145E-3
MEAN_MOTION_DOT = .6145E-4
MEAN_MOTION_DDOT = 0

CCSDS_OMM_VERS = 2.0
CREATION_DATE  = 
ORIGINATOR     = 

OBJECT_NAME    = 2025-274C
OBJECT_ID      = 2025-274C
CENTER_NAME    = EARTH
REF_FRAME      = TEME
TIME_SYSTEM    = UTC
MEAN_ELEMENT_THEORY = SGP/SGP4

EPOCH          = 2025-12-09T12:44:10.519584
MEAN_MOTION    = 14.91874076
ECCENTRICITY   = .0010407
INCLINATION    = 97.7387
RA_OF_ASC_NODE = 270.7817
ARG_OF_PERICENTER = 269.9894
MEAN_ANOMALY   = 90.0132

EPHEMERIS_TYPE = 0
CLASSIFICATION_TYPE = U
NORAD_CAT_ID   = 66652
ELEMENT_SET_NO = 999
REV_AT_EPOCH   = 192
BSTAR          = .37452E-3
MEAN_MOTION_DOT = .3732E-4
MEAN_MOTION_DDOT = 0

CCSDS_OMM_VERS = 2.0
CREATION_DATE  = 
ORIGINATOR     = 

OBJECT_NAME    = 2025-274D
OBJECT_ID      = 2025-274D
CENTER_NAME    = EARTH
REF_FRAME      = TEME
TIME_SYSTEM    = UTC
MEAN_ELEMENT_THEORY = SGP/SGP4

EPOCH          = 2025-12-09T12:44:05.312256
MEAN_MOTION    = 14.91878474
ECCENTRICITY   = .001128
INCLINATION    = 97.7386
RA_OF_ASC_NODE = 270.7814
ARG_OF_PERICENTER = 265.8961
MEAN_ANOMALY   = 94.0969

EPHEMERIS_TYPE = 0
CLASSIFICATION_TYPE = U
NORAD_CAT_ID   = 66653
ELEMENT_SET_NO = 999
REV_AT_EPOCH   = 192
BSTAR          = .38978E-3
MEAN_MOTION_DOT = .3888E-4
MEAN_MOTION_DDOT = 0

CCSDS_OMM_VERS = 2.0
CREATION_DATE  = 
ORIGINATOR     = 

OBJECT_NAME    = JACK E
OBJECT_ID      = 2025-274E
CENTER_NAME    = EARTH
REF_FRAME      = TEME
TIME_SYSTEM    = UTC
MEAN_ELEMENT_THEORY = SGP/SGP4

EPOCH          = 2025-12-09T09:28:53.341248
MEAN_MOTION    = 14.92052620
ECCENTRICITY   = .00118648
INCLINATION    = 97.7388
RA_OF_ASC_NODE = 270.6521
ARG_OF_PERICENTER = 268.0515
MEAN_ANOMALY   = 91.9345

EPHEMERIS_TYPE = 0
CLASSIFICATION_TYPE = U
NORAD_CAT_ID   = 66654
ELEMENT_SET_NO = 999
REV_AT_EPOCH   = 190
BSTAR          = .43977089E-3
MEAN_MOTION_DOT = .4414E-4
MEAN_MOTION_DDOT = 0

CCSDS_OMM_VERS = 2.0
CREATION_DATE  = 
ORIGINATOR     = 

OBJECT_NAME    = 2025-274F
OBJECT_ID      = 2025-274F
CENTER_NAME    = EARTH
REF_FRAME      = TEME
TIME_SYSTEM    = UTC
MEAN_ELEMENT_THEORY = SGP/SGP4

EPOCH          = 2025-12-08T18:57:10.718496
MEAN_MOTION    = 14.92504145
ECCENTRICITY   = .00054909
INCLINATION    = 97.7329
RA_OF_ASC_NODE = 270.0601
ARG_OF_PERICENTER = 323.8556
MEAN_ANOMALY   = 36.2292

EPHEMERIS_TYPE = 0
CLASSIFICATION_TYPE = U
NORAD_CAT_ID   = 66655
ELEMENT_SET_NO = 999
REV_AT_EPOCH   = 181
BSTAR          = .1516128E-2
MEAN_MOTION_DOT = .15539E-3
MEAN_MOTION_DDOT = 0

CCSDS_OMM_VERS = 2.0
CREATION_DATE  = 
ORIGINATOR     = 

OBJECT_NAME    = 2025-274G
OBJECT_ID      = 2025-274G
CENTER_NAME    = EARTH
REF_FRAME      = TEME
TIME_SYSTEM    = UTC
MEAN_ELEMENT_THEORY = SGP/SGP4

EPOCH          = 2025-12-09T17:29:26.764800
MEAN_MOTION    = 14.92244035
ECCENTRICITY   = .0012484
INCLINATION    = 97.7385
RA_OF_ASC_NODE = 270.9831
ARG_OF_PERICENTER = 268.5580
MEAN_ANOMALY   = 91.4209

EPHEMERIS_TYPE = 0
CLASSIFICATION_TYPE = U
NORAD_CAT_ID   = 66656
ELEMENT_SET_NO = 999
REV_AT_EPOCH   = 195
BSTAR          = .47846E-3
MEAN_MOTION_DOT = .4831E-4
MEAN_MOTION_DDOT = 0

CCSDS_OMM_VERS = 2.0
CREATION_DATE  = 
ORIGINATOR     = 

OBJECT_NAME    = SPIRONE
OBJECT_ID      = 2025-274H
CENTER_NAME    = EARTH
REF_FRAME      = TEME
TIME_SYSTEM    = UTC
MEAN_ELEMENT_THEORY = SGP/SGP4

EPOCH          = 2025-12-08T20:32:05.028864
MEAN_MOTION    = 14.92414576
ECCENTRICITY   = .0010976
INCLINATION    = 97.7386
RA_OF_ASC_NODE = 270.1280
ARG_OF_PERICENTER = 290.7866
MEAN_ANOMALY   = 69.2177

EPHEMERIS_TYPE = 0
CLASSIFICATION_TYPE = U
NORAD_CAT_ID   = 66657
ELEMENT_SET_NO = 999
REV_AT_EPOCH   = 182
BSTAR          = .36917E-3
MEAN_MOTION_DOT = .3729E-4
MEAN_MOTION_DDOT = 0

CCSDS_OMM_VERS = 2.0
CREATION_DATE  = 
ORIGINATOR     = 

OBJECT_NAME    = 2025-274J
OBJECT_ID      = 2025-274J
CENTER_NAME    = EARTH
REF_FRAME      = TEME
TIME_SYSTEM    = UTC
MEAN_ELEMENT_THEORY = SGP/SGP4

EPOCH          = 2025-12-09T14:11:55.777056
MEAN_MOTION    = 14.92594221
ECCENTRICITY   = .001152
INCLINATION    = 97.7384
RA_OF_ASC_NODE = 270.8551
ARG_OF_PERICENTER = 291.0278
MEAN_ANOMALY   = 68.9708

EPHEMERIS_TYPE = 0
CLASSIFICATION_TYPE = U
NORAD_CAT_ID   = 66658
ELEMENT_SET_NO = 999
REV_AT_EPOCH   = 193
BSTAR          = .44076E-3
MEAN_MOTION_DOT = .4485E-4
MEAN_MOTION_DDOT = 0

CCSDS_OMM_VERS = 2.0
CREATION_DATE  = 
ORIGINATOR     = 

OBJECT_NAME    = JACK K
OBJECT_ID      = 2025-274K
CENTER_NAME    = EARTH
REF_FRAME      = TEME
TIME_SYSTEM    = UTC
MEAN_ELEMENT_THEORY = SGP/SGP4

EPOCH          = 2025-12-09T14:09:36.881280
MEAN_MOTION    = 14.92780033
ECCENTRICITY   = .0012272
INCLINATION    = 97.7386
RA_OF_ASC_NODE = 270.8575
ARG_OF_PERICENTER = 292.2179
MEAN_ANOMALY   = 67.7739

EPHEMERIS_TYPE = 0
CLASSIFICATION_TYPE = U
NORAD_CAT_ID   = 66659
ELEMENT_SET_NO = 999
REV_AT_EPOCH   = 193
BSTAR          = .43144E-3
MEAN_MOTION_DOT = .441E-4
MEAN_MOTION_DDOT = 0

